[{"OBJECT_NAME":"SMOS","OBJECT_ID":"2009-059A","EPOCH":"2026-03-05T12:01:56.055072","MEAN_MOTION":14.39756876,"ECCENTRICITY":0.0001021,"INCLINATION":98.4425,"RA_OF_ASC_NODE":253.3395,"ARG_OF_PERICENTER":81.2996,"MEAN_ANOMALY":278.8308,"EPHEMERIS_TYPE":0,"CLASSIFICATION_TYPE":"U","NORAD_CAT_ID":36036,"ELEMENT_SET_NO":999,"REV_AT_EPOCH":85853,"BSTAR":0.00015889,"MEAN_MOTION_DOT":4.54e-6,"MEAN_MOTION_DDOT":0},{"OBJECT_NAME":"YAOGAN-7","OBJECT_ID":"2009-069A","EPOCH":"2026-03-05T18:36:28.791936","MEAN_MOTION":14.77885393,"ECCENTRICITY":0.0025078,"INCLINATION":98.0218,"RA_OF_ASC_NODE":311.2059,"ARG_OF_PERICENTER":15.8754,"MEAN_ANOMALY":344.3237,"EPHEMERIS_TYPE":0,"CLASSIFICATION_TYPE":"U","NORAD_CAT_ID":36110,"ELEMENT_SET_NO":999,"REV_AT_EPOCH":87435,"BSTAR":0.00016052,"MEAN_MOTION_DOT":1.108e-5,"MEAN_MOTION_DDOT":0},{"OBJECT_NAME":"TANDEM-X","OBJECT_ID":"2010-030A","EPOCH":"2026-03-05T13:56:30.438240","MEAN_MOTION":15.19152579,"ECCENTRICITY":0.0001843,"INCLINATION":97.4474,"RA_OF_ASC_NODE":73.7617,"ARG_OF_PERICENTER":96.3332,"MEAN_ANOMALY":263.8112,"EPHEMERIS_TYPE":0,"CLASSIFICATION_TYPE":"U","NORAD_CAT_ID":36605,"ELEMENT_SET_NO":999,"REV_AT_EPOCH":87091,"BSTAR":9.1693e-5,"MEAN_MOTION_DOT":1.859e-5,"MEAN_MOTION_DDOT":0},{"OBJECT_NAME":"CARTOSAT-2B","OBJECT_ID":"2010-035A","EPOCH":"2026-03-05T17:40:28.422048","MEAN_MOTION":14.78792185,"ECCENTRICITY":0.0012179,"INCLINATION":97.8657,"RA_OF_ASC_NODE":116.1016,"ARG_OF_PERICENTER":161.6918,"MEAN_ANOMALY":198.4734,"EPHEMERIS_TYPE":0,"CLASSIFICATION_TYPE":"U","NORAD_CAT_ID":36795,"ELEMENT_SET_NO":999,"REV_AT_EPOCH":84456,"BSTAR":0.000184,"MEAN_MOTION_DOT":1.303e-5,"MEAN_MOTION_DDOT":0},{"OBJECT_NAME":"YAOGAN-10","OBJECT_ID":"2010-038A","EPOCH":"2026-03-05T19:23:53.181888","MEAN_MOTION":14.84990918,"ECCENTRICITY":0.0001583,"INCLINATION":97.9079,"RA_OF_ASC_NODE":89.0095,"ARG_OF_PERICENTER":89.4891,"MEAN_ANOMALY":21.487,"EPHEMERIS_TYPE":0,"CLASSIFICATION_TYPE":"U","NORAD_CAT_ID":36834,"ELEMENT_SET_NO":999,"REV_AT_EPOCH":84186,"BSTAR":2.3114e-5,"MEAN_MOTION_DOT":1.43e-6,"MEAN_MOTION_DDOT":0},{"OBJECT_NAME":"COSMO-SKYMED 4","OBJECT_ID":"2010-060A","EPOCH":"2026-03-05T17:56:30.416928","MEAN_MOTION":14.82159275,"ECCENTRICITY":0.0001435,"INCLINATION":97.8853,"RA_OF_ASC_NODE":249.8412,"ARG_OF_PERICENTER":85.3137,"MEAN_ANOMALY":274.824,"EPHEMERIS_TYPE":0,"CLASSIFICATION_TYPE":"U","NORAD_CAT_ID":37216,"ELEMENT_SET_NO":999,"REV_AT_EPOCH":82924,"BSTAR":0.00019971,"MEAN_MOTION_DOT":1.538e-5,"MEAN_MOTION_DDOT":0},{"OBJECT_NAME":"RESOURCESAT-2","OBJECT_ID":"2011-015A","EPOCH":"2026-03-05T18:29:25.982304","MEAN_MOTION":14.21494766,"ECCENTRICITY":0.0006284,"INCLINATION":98.773,"RA_OF_ASC_NODE":132.8827,"ARG_OF_PERICENTER":149.0982,"MEAN_ANOMALY":211.0565,"EPHEMERIS_TYPE":0,"CLASSIFICATION_TYPE":"U","NORAD_CAT_ID":37387,"ELEMENT_SET_NO":999,"REV_AT_EPOCH":77148,"BSTAR":-7.6647e-5,"MEAN_MOTION_DOT":-2.12e-6,"MEAN_MOTION_DDOT":0},{"OBJECT_NAME":"HAIYANG-2A","OBJECT_ID":"2011-043A","EPOCH":"2026-03-05T17:20:06.571392","MEAN_MOTION":13.78353086,"ECCENTRICITY":0.0001138,"INCLINATION":99.3409,"RA_OF_ASC_NODE":69.3865,"ARG_OF_PERICENTER":290.0349,"MEAN_ANOMALY":70.068,"EPHEMERIS_TYPE":0,"CLASSIFICATION_TYPE":"U","NORAD_CAT_ID":37781,"ELEMENT_SET_NO":999,"REV_AT_EPOCH":73242,"BSTAR":-0.0001829,"MEAN_MOTION_DOT":-2.29e-6,"MEAN_MOTION_DDOT":0},{"OBJECT_NAME":"RASAT","OBJECT_ID":"2011-044D","EPOCH":"2026-03-05T17:41:22.109280","MEAN_MOTION":14.68051544,"ECCENTRICITY":0.0021055,"INCLINATION":98.0566,"RA_OF_ASC_NODE":157.7387,"ARG_OF_PERICENTER":157.1266,"MEAN_ANOMALY":8.1015,"EPHEMERIS_TYPE":0,"CLASSIFICATION_TYPE":"U","NORAD_CAT_ID":37791,"ELEMENT_SET_NO":999,"REV_AT_EPOCH":77800,"BSTAR":0.00025807,"MEAN_MOTION_DOT":1.437e-5,"MEAN_MOTION_DDOT":0},{"OBJECT_NAME":"SRMSAT","OBJECT_ID":"2011-058D","EPOCH":"2026-03-05T19:08:13.529184","MEAN_MOTION":14.1154593,"ECCENTRICITY":0.0011863,"INCLINATION":19.973,"RA_OF_ASC_NODE":325.2627,"ARG_OF_PERICENTER":146.3815,"MEAN_ANOMALY":259.2146,"EPHEMERIS_TYPE":0,"CLASSIFICATION_TYPE":"U","NORAD_CAT_ID":37841,"ELEMENT_SET_NO":999,"REV_AT_EPOCH":74319,"BSTAR":0.00012935,"MEAN_MOTION_DOT":5.03e-6,"MEAN_MOTION_DDOT":0},{"OBJECT_NAME":"PLEIADES 1A","OBJECT_ID":"2011-076F","EPOCH":"2026-03-05T17:59:34.166400","MEAN_MOTION":14.58537036,"ECCENTRICITY":0.0001679,"INCLINATION":98.2053,"RA_OF_ASC_NODE":141.2129,"ARG_OF_PERICENTER":90.9364,"MEAN_ANOMALY":7.4146,"EPHEMERIS_TYPE":0,"CLASSIFICATION_TYPE":"U","NORAD_CAT_ID":38012,"ELEMENT_SET_NO":999,"REV_AT_EPOCH":75691,"BSTAR":0.00018207,"MEAN_MOTION_DOT":8.0e-6,"MEAN_MOTION_DDOT":0},{"OBJECT_NAME":"ZIYUAN 1-02C (ZY 1-02C)","OBJECT_ID":"2011-079A","EPOCH":"2026-03-05T18:37:44.832576","MEAN_MOTION":14.38118824,"ECCENTRICITY":0.0005283,"INCLINATION":98.4181,"RA_OF_ASC_NODE":134.2082,"ARG_OF_PERICENTER":253.9611,"MEAN_ANOMALY":253.845,"EPHEMERIS_TYPE":0,"CLASSIFICATION_TYPE":"U","NORAD_CAT_ID":38038,"ELEMENT_SET_NO":999,"REV_AT_EPOCH":74434,"BSTAR":0.00020553,"MEAN_MOTION_DOT":5.8e-6,"MEAN_MOTION_DDOT":0},{"OBJECT_NAME":"ARIRANG-3 (KOMPSAT-3)","OBJECT_ID":"2012-025B","EPOCH":"2026-03-05T18:25:09.227424","MEAN_MOTION":14.62096477,"ECCENTRICITY":0.0006769,"INCLINATION":98.1057,"RA_OF_ASC_NODE":24.0888,"ARG_OF_PERICENTER":80.6184,"MEAN_ANOMALY":279.5783,"EPHEMERIS_TYPE":0,"CLASSIFICATION_TYPE":"U","NORAD_CAT_ID":38338,"ELEMENT_SET_NO":999,"REV_AT_EPOCH":73623,"BSTAR":0.00018808,"MEAN_MOTION_DOT":8.99e-6,"MEAN_MOTION_DDOT":0},{"OBJECT_NAME":"EXACTVIEW-1 (ADS-1B)","OBJECT_ID":"2012-039C","EPOCH":"2026-03-05T17:48:10.160928","MEAN_MOTION":14.24949216,"ECCENTRICITY":0.0011878,"INCLINATION":98.9636,"RA_OF_ASC_NODE":179.874,"ARG_OF_PERICENTER":108.8057,"MEAN_ANOMALY":251.4411,"EPHEMERIS_TYPE":0,"CLASSIFICATION_TYPE":"U","NORAD_CAT_ID":38709,"ELEMENT_SET_NO":999,"REV_AT_EPOCH":70797,"BSTAR":0.00011866,"MEAN_MOTION_DOT":2.31e-6,"MEAN_MOTION_DDOT":0},{"OBJECT_NAME":"SPOT 6","OBJECT_ID":"2012-047A","EPOCH":"2026-03-05T17:54:18.141120","MEAN_MOTION":14.58538141,"ECCENTRICITY":0.0001464,"INCLINATION":98.2228,"RA_OF_ASC_NODE":133.2187,"ARG_OF_PERICENTER":94.5771,"MEAN_ANOMALY":265.5595,"EPHEMERIS_TYPE":0,"CLASSIFICATION_TYPE":"U","NORAD_CAT_ID":38755,"ELEMENT_SET_NO":999,"REV_AT_EPOCH":71797,"BSTAR":0.00010725,"MEAN_MOTION_DOT":4.52e-6,"MEAN_MOTION_DDOT":0},{"OBJECT_NAME":"PLEIADES 1B","OBJECT_ID":"2012-068A","EPOCH":"2026-03-05T18:21:51.367968","MEAN_MOTION":14.58523233,"ECCENTRICITY":0.0001608,"INCLINATION":98.2024,"RA_OF_ASC_NODE":141.2131,"ARG_OF_PERICENTER":87.6972,"MEAN_ANOMALY":272.4411,"EPHEMERIS_TYPE":0,"CLASSIFICATION_TYPE":"U","NORAD_CAT_ID":39019,"ELEMENT_SET_NO":999,"REV_AT_EPOCH":70577,"BSTAR":0.00010062,"MEAN_MOTION_DOT":4.22e-6,"MEAN_MOTION_DDOT":0},{"OBJECT_NAME":"GOKTURK 2","OBJECT_ID":"2012-073A","EPOCH":"2026-03-05T17:31:14.243808","MEAN_MOTION":14.75429749,"ECCENTRICITY":0.000119,"INCLINATION":97.688,"RA_OF_ASC_NODE":267.3039,"ARG_OF_PERICENTER":57.0454,"MEAN_ANOMALY":303.0871,"EPHEMERIS_TYPE":0,"CLASSIFICATION_TYPE":"U","NORAD_CAT_ID":39030,"ELEMENT_SET_NO":999,"REV_AT_EPOCH":70925,"BSTAR":0.00019399,"MEAN_MOTION_DOT":1.271e-5,"MEAN_MOTION_DDOT":0}]
