SMOS                    
1 36036U 09059A   26064.50134323  .00000454  00000+0  15889-3 0  9996
2 36036  98.4425 253.3395 0001021  81.2996 278.8308 14.39756876858532
YAOGAN-7                
1 36110U 09069A   26064.77533324  .00001108  00000+0  16052-3 0  9993
2 36110  98.0218 311.2059 0025078  15.8754 344.3237 14.77885393874352
TANDEM-X                
1 36605U 10030A   26064.58090785  .00001859  00000+0  91693-4 0  9998
2 36605  97.4474  73.7617 0001843  96.3332 263.8112 15.19152579870913
CARTOSAT-2B             
1 36795U 10035A   26064.73644007  .00001303  00000+0  18400-3 0  9990
2 36795  97.8657 116.1016 0012179 161.6918 198.4734 14.78792185844567
YAOGAN-10               
1 36834U 10038A   26064.80825442  .00000143  00000+0  23114-4 0  9999
2 36834  97.9079  89.0095 0001583  89.4891  21.4870 14.84990918841866
COSMO-SKYMED 4          
1 37216U 10060A   26064.74757427  .00001538  00000+0  19971-3 0  9993
2 37216  97.8853 249.8412 0001435  85.3137 274.8240 14.82159275829247
RESOURCESAT-2           
1 37387U 11015A   26064.77043961 -.00000212  00000+0 -76647-4 0  9991
2 37387  98.7730 132.8827 0006284 149.0982 211.0565 14.21494766771489
HAIYANG-2A              
1 37781U 11043A   26064.72229828 -.00000229  00000+0 -18290-3 0  9990
2 37781  99.3409  69.3865 0001138 290.0349  70.0680 13.78353086732422
RASAT                   
1 37791U 11044D   26064.73706145  .00001437  00000+0  25807-3 0  9997
2 37791  98.0566 157.7387 0021055 157.1266   8.1015 14.68051544778007
SRMSAT                  
1 37841U 11058D   26064.79737881  .00000503  00000+0  12935-3 0  9996
2 37841  19.9730 325.2627 0011863 146.3815 259.2146 14.11545930743194
PLEIADES 1A             
1 38012U 11076F   26064.74970100  .00000800  00000+0  18207-3 0  9993
2 38012  98.2053 141.2129 0001679  90.9364   7.4146 14.58537036756919
ZIYUAN 1-02C (ZY 1-02C) 
1 38038U 11079A   26064.77621334  .00000580  00000+0  20553-3 0  9991
2 38038  98.4181 134.2082 0005283 253.9611 253.8450 14.38118824744349
ARIRANG-3 (KOMPSAT-3)   
1 38338U 12025B   26064.76746791  .00000899  00000+0  18808-3 0  9993
2 38338  98.1057  24.0888 0006769  80.6184 279.5783 14.62096477736230
EXACTVIEW-1 (ADS-1B)    
1 38709U 12039C   26064.74178427  .00000231  00000+0  11866-3 0  9990
2 38709  98.9636 179.8740 0011878 108.8057 251.4411 14.24949216707970
SPOT 6                  
1 38755U 12047A   26064.74604330  .00000452  00000+0  10725-3 0  9995
2 38755  98.2228 133.2187 0001464  94.5771 265.5595 14.58538141717972
PLEIADES 1B             
1 39019U 12068A   26064.76517787  .00000422  00000+0  10062-3 0  9994
2 39019  98.2024 141.2131 0001608  87.6972 272.4411 14.58523233705779
GOKTURK 2               
1 39030U 12073A   26064.73002597  .00001271  00000+0  19399-3 0  9993
2 39030  97.6880 267.3039 0001190  57.0454 303.0871 14.75429749709258
